[
    {
        "OBJECT_NAME": "GPS BIIF-3  (PRN 24)",
        "OBJECT_ID": "2012-053A",
        "EPOCH": "2026-06-07T08:16:39.168192",
        "MEAN_MOTION": 2.00567343,
        "ECCENTRICITY": 0.01797508,
        "INCLINATION": 53.5842,
        "RA_OF_ASC_NODE": 144.0025,
        "ARG_OF_PERICENTER": 65.6197,
        "MEAN_ANOMALY": 296.2414,
        "EPHEMERIS_TYPE": 0,
        "CLASSIFICATION_TYPE": "U",
        "NORAD_CAT_ID": 38833,
        "ELEMENT_SET_NO": 999,
        "REV_AT_EPOCH": 9924,
        "BSTAR": 0,
        "MEAN_MOTION_DOT": 9.6e-7,
        "MEAN_MOTION_DDOT": 0
    },
    {
        "OBJECT_NAME": "GPS BIIF-4  (PRN 27)",
        "OBJECT_ID": "2013-023A",
        "EPOCH": "2026-06-07T05:04:40.775520",
        "MEAN_MOTION": 2.00563548,
        "ECCENTRICITY": 0.01416081,
        "INCLINATION": 54.5121,
        "RA_OF_ASC_NODE": 269.3802,
        "ARG_OF_PERICENTER": 50.9995,
        "MEAN_ANOMALY": 310.2743,
        "EPHEMERIS_TYPE": 0,
        "CLASSIFICATION_TYPE": "U",
        "NORAD_CAT_ID": 39166,
        "ELEMENT_SET_NO": 999,
        "REV_AT_EPOCH": 9568,
        "BSTAR": 0,
        "MEAN_MOTION_DOT": -3.1e-7,
        "MEAN_MOTION_DDOT": 0
    },
    {
        "OBJECT_NAME": "GPS BIIF-5  (PRN 30)",
        "OBJECT_ID": "2014-008A",
        "EPOCH": "2026-06-08T05:02:50.225856",
        "MEAN_MOTION": 2.0055922,
        "ECCENTRICITY": 0.00842371,
        "INCLINATION": 53.6532,
        "RA_OF_ASC_NODE": 149.6858,
        "ARG_OF_PERICENTER": 231.1306,
        "MEAN_ANOMALY": 128.1213,
        "EPHEMERIS_TYPE": 0,
        "CLASSIFICATION_TYPE": "U",
        "NORAD_CAT_ID": 39533,
        "ELEMENT_SET_NO": 999,
        "REV_AT_EPOCH": 8950,
        "BSTAR": 0,
        "MEAN_MOTION_DOT": 1.06e-6,
        "MEAN_MOTION_DDOT": 0
    },
    {
        "OBJECT_NAME": "GPS BIIF-6  (PRN 06)",
        "OBJECT_ID": "2014-026A",
        "EPOCH": "2026-06-07T23:41:28.923648",
        "MEAN_MOTION": 2.00561693,
        "ECCENTRICITY": 0.00382497,
        "INCLINATION": 56.5029,
        "RA_OF_ASC_NODE": 331.8757,
        "ARG_OF_PERICENTER": 326.7038,
        "MEAN_ANOMALY": 33.0643,
        "EPHEMERIS_TYPE": 0,
        "CLASSIFICATION_TYPE": "U",
        "NORAD_CAT_ID": 39741,
        "ELEMENT_SET_NO": 999,
        "REV_AT_EPOCH": 8835,
        "BSTAR": 0,
        "MEAN_MOTION_DOT": -5.7e-7,
        "MEAN_MOTION_DDOT": 0
    },
    {
        "OBJECT_NAME": "GPS BIIF-7  (PRN 09)",
        "OBJECT_ID": "2014-045A",
        "EPOCH": "2026-06-08T01:53:28.758912",
        "MEAN_MOTION": 2.00557808,
        "ECCENTRICITY": 0.00329201,
        "INCLINATION": 55.3475,
        "RA_OF_ASC_NODE": 88.8279,
        "ARG_OF_PERICENTER": 118.3764,
        "MEAN_ANOMALY": 241.9512,
        "EPHEMERIS_TYPE": 0,
        "CLASSIFICATION_TYPE": "U",
        "NORAD_CAT_ID": 40105,
        "ELEMENT_SET_NO": 999,
        "REV_AT_EPOCH": 8589,
        "BSTAR": 0,
        "MEAN_MOTION_DOT": 5.0e-8,
        "MEAN_MOTION_DDOT": 0
    },
    {
        "OBJECT_NAME": "GPS BIIF-8  (PRN 03)",
        "OBJECT_ID": "2014-068A",
        "EPOCH": "2026-06-06T22:51:23.502240",
        "MEAN_MOTION": 2.00575638,
        "ECCENTRICITY": 0.0066821,
        "INCLINATION": 56.9806,
        "RA_OF_ASC_NODE": 31.3491,
        "ARG_OF_PERICENTER": 70.2149,
        "MEAN_ANOMALY": 290.559,
        "EPHEMERIS_TYPE": 0,
        "CLASSIFICATION_TYPE": "U",
        "NORAD_CAT_ID": 40294,
        "ELEMENT_SET_NO": 999,
        "REV_AT_EPOCH": 8500,
        "BSTAR": 0,
        "MEAN_MOTION_DOT": -6.6e-7,
        "MEAN_MOTION_DDOT": 0
    },
    {
        "OBJECT_NAME": "GPS BIIF-9  (PRN 26)",
        "OBJECT_ID": "2015-013A",
        "EPOCH": "2026-06-07T02:10:07.423680",
        "MEAN_MOTION": 2.00552172,
        "ECCENTRICITY": 0.01093482,
        "INCLINATION": 53.1686,
        "RA_OF_ASC_NODE": 204.5953,
        "ARG_OF_PERICENTER": 40.1244,
        "MEAN_ANOMALY": 320.754,
        "EPHEMERIS_TYPE": 0,
        "CLASSIFICATION_TYPE": "U",
        "NORAD_CAT_ID": 40534,
        "ELEMENT_SET_NO": 999,
        "REV_AT_EPOCH": 8162,
        "BSTAR": 0,
        "MEAN_MOTION_DOT": 5.7e-7,
        "MEAN_MOTION_DDOT": 0
    },
    {
        "OBJECT_NAME": "GPS BIIF-10 (PRN 08)",
        "OBJECT_ID": "2015-033A",
        "EPOCH": "2026-06-07T17:56:43.160064",
        "MEAN_MOTION": 2.00556722,
        "ECCENTRICITY": 0.01150323,
        "INCLINATION": 53.9899,
        "RA_OF_ASC_NODE": 267.4759,
        "ARG_OF_PERICENTER": 30.1863,
        "MEAN_ANOMALY": 330.4949,
        "EPHEMERIS_TYPE": 0,
        "CLASSIFICATION_TYPE": "U",
        "NORAD_CAT_ID": 40730,
        "ELEMENT_SET_NO": 999,
        "REV_AT_EPOCH": 7980,
        "BSTAR": 0,
        "MEAN_MOTION_DOT": -3.1e-7,
        "MEAN_MOTION_DDOT": 0
    },
    {
        "OBJECT_NAME": "GPS BIIF-11 (PRN 10)",
        "OBJECT_ID": "2015-062A",
        "EPOCH": "2026-06-07T07:20:05.993952",
        "MEAN_MOTION": 2.00567051,
        "ECCENTRICITY": 0.01116178,
        "INCLINATION": 56.9527,
        "RA_OF_ASC_NODE": 31.192,
        "ARG_OF_PERICENTER": 231.1506,
        "MEAN_ANOMALY": 127.9002,
        "EPHEMERIS_TYPE": 0,
        "CLASSIFICATION_TYPE": "U",
        "NORAD_CAT_ID": 41019,
        "ELEMENT_SET_NO": 999,
        "REV_AT_EPOCH": 7763,
        "BSTAR": 0,
        "MEAN_MOTION_DOT": -6.6e-7,
        "MEAN_MOTION_DDOT": 0
    },
    {
        "OBJECT_NAME": "GPS BIIF-12 (PRN 32)",
        "OBJECT_ID": "2016-007A",
        "EPOCH": "2026-06-04T21:40:06.394656",
        "MEAN_MOTION": 2.00552419,
        "ECCENTRICITY": 0.00963109,
        "INCLINATION": 55.5169,
        "RA_OF_ASC_NODE": 89.9466,
        "ARG_OF_PERICENTER": 247.3906,
        "MEAN_ANOMALY": 111.5783,
        "EPHEMERIS_TYPE": 0,
        "CLASSIFICATION_TYPE": "U",
        "NORAD_CAT_ID": 41328,
        "ELEMENT_SET_NO": 999,
        "REV_AT_EPOCH": 7559,
        "BSTAR": 0,
        "MEAN_MOTION_DOT": 4.0e-8,
        "MEAN_MOTION_DDOT": 0
    },
    {
        "OBJECT_NAME": "GPS BIII-1  (PRN 04)",
        "OBJECT_ID": "2018-109A",
        "EPOCH": "2026-06-08T05:39:15.675840",
        "MEAN_MOTION": 2.0056128,
        "ECCENTRICITY": 0.00382177,
        "INCLINATION": 55.6763,
        "RA_OF_ASC_NODE": 92.5404,
        "ARG_OF_PERICENTER": 198.1524,
        "MEAN_ANOMALY": 302.179,
        "EPHEMERIS_TYPE": 0,
        "CLASSIFICATION_TYPE": "U",
        "NORAD_CAT_ID": 43873,
        "ELEMENT_SET_NO": 999,
        "REV_AT_EPOCH": 5489,
        "BSTAR": 0,
        "MEAN_MOTION_DOT": 1.3e-7,
        "MEAN_MOTION_DDOT": 0
    },
    {
        "OBJECT_NAME": "GPS BIII-2  (PRN 18)",
        "OBJECT_ID": "2019-056A",
        "EPOCH": "2026-06-06T04:10:38.785728",
        "MEAN_MOTION": 2.00569824,
        "ECCENTRICITY": 0.00614516,
        "INCLINATION": 55.6435,
        "RA_OF_ASC_NODE": 331.5809,
        "ARG_OF_PERICENTER": 197.4701,
        "MEAN_ANOMALY": 157.7136,
        "EPHEMERIS_TYPE": 0,
        "CLASSIFICATION_TYPE": "U",
        "NORAD_CAT_ID": 44506,
        "ELEMENT_SET_NO": 999,
        "REV_AT_EPOCH": 4984,
        "BSTAR": 0,
        "MEAN_MOTION_DOT": -6.3e-7,
        "MEAN_MOTION_DDOT": 0
    }
]